stk.v.11.0

# WrittenBy    STK_v11.7.1

BEGIN Ephemeris

    NumberOfEphemerisPoints		 2577

    ScenarioEpoch		 16 Jul 2020 03:40:48.000000

# Epoch in JDate format: 2459046.65333333333333
# Epoch in YYDDD format:   20198.15333333333333


    InterpolationMethod		 Lagrange

    InterpolationSamplesM1		 7

    CentralBody		 Earth

    CoordinateSystem		 ICRF

# Time of first point: 16 Jul 2020 03:40:48.000000000 UTCG = 2459046.65333333333333 JDate = 20198.15333333333333 YYDDD

    EphemerisTimePosVel		

 1.1107223799999608e+05  3.6044500496880966e+06 -5.2568193795798803e+06  4.1458125133178831e+05  3.5743202348859393e+02  3.0061008909066442e+02 -3.7548564501981203e+00
 1.1107360399999606e+05  3.6049383371476480e+06 -5.2564088089672551e+06  4.1457612901409646e+05  3.5748364725825837e+02  3.0051832013243092e+02 -3.7448869031862575e+00
 1.1107496899999605e+05  3.6054263372532548e+06 -5.2559986635952685e+06  4.1457102400784055e+05  3.5753474096215410e+02  3.0042741117324590e+02 -3.7349858849941913e+00
 1.1107633199999604e+05  3.6059136915985527e+06 -5.2555892424529735e+06  4.1456593992540543e+05  3.5758527449234293e+02  3.0033741718187503e+02 -3.7251597476611678e+00
 1.1107769399999603e+05  3.6064007568583880e+06 -5.2551802436933098e+06  4.1456087291066366e+05  3.5763529203444926e+02  3.0024826082709490e+02 -3.7154004060815087e+00
 1.1107905399999602e+05  3.6068871745495331e+06 -5.2547719661640078e+06  4.1455582655936916e+05  3.5768476376814812e+02  3.0015999658189469e+02 -3.7057141746713551e+00
 1.1108041299999601e+05  3.6073733014704464e+06 -5.2543641082340200e+06  4.1455079703785898e+05  3.5773373278113746e+02  3.0007254885350130e+02 -3.6960931031986783e+00
 1.1108176999999600e+05  3.6078587790619093e+06 -5.2539569686112823e+06  4.1454578792538494e+05  3.5778216956288657e+02  2.9998597158647408e+02 -3.6865434658716998e+00
 1.1108312499999598e+05  3.6083436064125989e+06 -5.2535505457757162e+06  4.1454079908738862e+05  3.5783008096150922e+02  2.9990025383981589e+02 -3.6770644160807580e+00
 1.1108447899999598e+05  3.6088281405009967e+06 -5.2531445384116918e+06  4.1453582672321639e+05  3.5787750850556750e+02  2.9981532249295952e+02 -3.6676481953234341e+00
 1.1108583099999596e+05  3.6093120226564147e+06 -5.2527392450217484e+06  4.1453087438772625e+05  3.5792442316998262e+02  2.9973123066857414e+02 -3.6583010151510980e+00
 1.1108718199999596e+05  3.6097956099729226e+06 -5.2523343644934269e+06  4.1452593830169976e+05  3.5797086550180268e+02  2.9964790680429405e+02 -3.6490152378682024e+00
 1.1108853099999594e+05  3.6102785437062257e+06 -5.2519301951936008e+06  4.1452102200384159e+05  3.5801680681716886e+02  2.9956540344916260e+02 -3.6397970312161165e+00
 1.1108987799999592e+05  3.6107608230007621e+06 -5.2515267356919311e+06  4.1451612536663160e+05  3.5806225313873932e+02  2.9948371093294276e+02 -3.6306456479301472e+00
 1.1109122299999592e+05  3.6112424470119560e+06 -5.2511239845758220e+06  4.1451124826394563e+05  3.5810721033828742e+02  2.9940281981826962e+02 -3.6215603589382694e+00
 1.1109256599999592e+05  3.6117234149059723e+06 -5.2507219404500369e+06  4.1450639057102549e+05  3.5815168414246421e+02  2.9932272089188768e+02 -3.6125404526737452e+00
 1.1109390699999590e+05  3.6122037258594777e+06 -5.2503206019363282e+06  4.1450155216445040e+05  3.5819568013832014e+02  2.9924340515625715e+02 -3.6035852344166432e+00
 1.1109524699999590e+05  3.6126837372986334e+06 -5.2499196685082503e+06  4.1449672932741832e+05  3.5823923613219284e+02  2.9916480540836358e+02 -3.5946874042808208e+00
 1.1109658499999589e+05  3.6131630902673597e+06 -5.2495194381409222e+06  4.1449192555145361e+05  3.5828232449544464e+02  2.9908697243696287e+02 -3.5858529952960163e+00
 1.1109792099999587e+05  3.6136417839711071e+06 -5.2491199095027074e+06  4.1448714071679639e+05  3.5832495043613079e+02  2.9900989783031633e+02 -3.5770813584885839e+00
 1.1109925499999587e+05  3.6141198176249829e+06 -5.2487210812776405e+06  4.1448237470492139e+05  3.5836711904233437e+02  2.9893357336258811e+02 -3.5683718593922484e+00
 1.1110058699999587e+05  3.6145971904535536e+06 -5.2483229521651184e+06  4.1447762739851372e+05  3.5840883528666592e+02  2.9885799098701233e+02 -3.5597238775119018e+00
 1.1110191699999585e+05  3.6150739016906540e+06 -5.2479255208796011e+06  4.1447289868144586e+05  3.5845010403058080e+02  2.9878314282933815e+02 -3.5511368058091506e+00
 1.1110324499999583e+05  3.6155499505792027e+06 -5.2475287861503242e+06  4.1446818843875488e+05  3.5849093002851657e+02  2.9870902118154800e+02 -3.5426100502093356e+00
 1.1110457099999583e+05  3.6160253363710251e+06 -5.2471327467210181e+06  4.1446349655662104e+05  3.5853131793186498e+02  2.9863561849582754e+02 -3.5341430291282476e+00
 1.1110589499999583e+05  3.6165000583266811e+06 -5.2467374013496414e+06  4.1445882292234676e+05  3.5857127229277989e+02  2.9856292737878482e+02 -3.5257351730184405e+00
 1.1110721699999581e+05  3.6169741157153002e+06 -5.2463427488081176e+06  4.1445416742433637e+05  3.5861079756783101e+02  2.9849094058590350e+02 -3.5173859239338889e+00
 1.1110853699999582e+05  3.6174475078144209e+06 -5.2459487878820878e+06  4.1444952995207650e+05  3.5864989812150810e+02  2.9841965101622344e+02 -3.5090947351124782e+00
 1.1110985499999582e+05  3.6179202339098365e+06 -5.2455555173706627e+06  4.1444491039611731e+05  3.5868857822957995e+02  2.9834905170724068e+02 -3.5008610705757475e+00
 1.1111117099999581e+05  3.6183922932954468e+06 -5.2451629360861899e+06  4.1444030864805414e+05  3.5872684208231766e+02  2.9827913583001447e+02 -3.4926844047448560e+00
 1.1111248399999581e+05  3.6188633265084331e+06 -5.2447713410639511e+06  4.1443572808507731e+05  3.5876466511499603e+02  2.9820994916215125e+02 -3.4845703851541807e+00
 1.1111379499999579e+05  3.6193336915482995e+06 -5.2443804327950822e+06  4.1443116510013049e+05  3.5880208056052265e+02  2.9814143179329648e+02 -3.4765122766654240e+00
 1.1111510399999577e+05  3.6198033877336280e+06 -5.2439902101322943e+06  4.1442661958800734e+05  3.5883909236419584e+02  2.9807357727851837e+02 -3.4685095835712629e+00
 1.1111641099999577e+05  3.6202724143905430e+06 -5.2436006719406443e+06  4.1442209144447750e+05  3.5887570439762499e+02  2.9800637928851040e+02 -3.4605618191563257e+00
 1.1111771599999577e+05  3.6207407708525849e+06 -5.2432118170973314e+06  4.1441758056627098e+05  3.5891192046133420e+02  2.9793983160563630e+02 -3.4526685053868196e+00
 1.1111901899999575e+05  3.6212084564605881e+06 -5.2428236444915067e+06  4.1441308685106342e+05  3.5894774428726396e+02  2.9787392812012979e+02 -3.4448291726123244e+00
 1.1112031999999576e+05  3.6216754705625637e+06 -5.2424361530240867e+06  4.1440861019746144e+05  3.5898317954116538e+02  2.9780866282645655e+02 -3.4370433592803091e+00
 1.1112161799999574e+05  3.6221414534953693e+06 -5.2420496393516241e+06  4.1440415393430216e+05  3.5901820296888445e+02  2.9774407937221395e+02 -3.4293165487802524e+00
 1.1112291399999574e+05  3.6226067635699348e+06 -5.2416638045260049e+06  4.1439971451734449e+05  3.5905284546945666e+02  2.9768012158849041e+02 -3.4216422953116528e+00
 1.1112420799999574e+05  3.6230714001562642e+06 -5.2412786474842299e+06  4.1439529184806184e+05  3.5908711051781648e+02  2.9761678377143545e+02 -3.4140201607343341e+00
 1.1112549999999572e+05  3.6235353626310886e+06 -5.2408941671743467e+06  4.1439088582880312e+05  3.5912100153149072e+02  2.9755406030807478e+02 -3.4064497139582519e+00
 1.1112678999999570e+05  3.6239986503777658e+06 -5.2405103625552915e+06  4.1438649636278034e+05  3.5915452187253493e+02  2.9749194567336508e+02 -3.3989305307124265e+00
 1.1112807799999570e+05  3.6244612627861840e+06 -5.2401272325967290e+06  4.1438212335405662e+05  3.5918767484938570e+02  2.9743043442737502e+02 -3.3914621933238482e+00
 1.1112936299999570e+05  3.6249228400322148e+06 -5.2397450736484500e+06  4.1437777009158145e+05  3.5922043834276462e+02  2.9736956838467506e+02 -3.3840500436840570e+00
 1.1113064599999570e+05  3.6253837406741451e+06 -5.2393635872109914e+06  4.1437343308230798e+05  3.5925284141584200e+02  2.9730929432285188e+02 -3.3766878637907070e+00
 1.1113192699999569e+05  3.6258439641219680e+06 -5.2389827722870791e+06  4.1436911223293218e+05  3.5928488722151388e+02  2.9724960704994373e+02 -3.3693752551705956e+00
 1.1113320599999567e+05  3.6263035097918329e+06 -5.2386026278895698e+06  4.1436480745095463e+05  3.5931657886586260e+02  2.9719050144873216e+02 -3.3621118251354587e+00
 1.1113448299999567e+05  3.6267623771059602e+06 -5.2382231530413115e+06  4.1436051864467002e+05  3.5934791940965658e+02  2.9713197247445584e+02 -3.3548971866027042e+00
 1.1113575799999567e+05  3.6272205654925606e+06 -5.2378443467750158e+06  4.1435624572315696e+05  3.5937891186978891e+02  2.9707401515261671e+02 -3.3477309579234431e+00
 1.1113703099999565e+05  3.6276780743857557e+06 -5.2374662081331275e+06  4.1435198859626817e+05  3.5940955922065217e+02  2.9701662457688263e+02 -3.3406127627180706e+00
 1.1113830099999564e+05  3.6281345437856484e+06 -5.2370890331275174e+06  4.1434775050816580e+05  3.5943984066698101e+02  2.9695984043423277e+02 -3.3335477784099292e+00
 1.1113956899999562e+05  3.6285903325178968e+06 -5.2367125237474097e+06  4.1434352802263608e+05  3.5946978328841169e+02  2.9690361268726099e+02 -3.3265300332111547e+00
 1.1114083499999563e+05  3.6290454400349092e+06 -5.2363366790653700e+06  4.1433932105193782e+05  3.5949938993500336e+02  2.9684793662996486e+02 -3.3195591662083452e+00
 1.1114209899999562e+05  3.6294998657946964e+06 -5.2359614981631972e+06  4.1433512950906547e+05  3.5952866341936874e+02  2.9679280761678132e+02 -3.3126348211520975e+00
 1.1114336099999561e+05  3.6299536092608036e+06 -5.2355869801318133e+06  4.1433095330774033e+05  3.5955760651778593e+02  2.9673822106088522e+02 -3.3057566463237258e+00
 1.1114462099999559e+05  3.6304066699022423e+06 -5.2352131240711510e+06  4.1432679236240225e+05  3.5958622197126721e+02  2.9668417243255374e+02 -3.2989242944071666e+00
END Ephemeris
